{
  "norad_id": 66319,
  "name": "STARLINK-35442",
  "history": [
    {
      "epoch": "2026-03-28T09:49:24.637152Z",
      "apogee_km": 483.7612655500543,
      "perigee_km": 482.19720549300473,
      "latitude_deg": -2.086703646725959e-05,
      "longitude_deg": 133.93504997757975,
      "height_km": 482.69961417759254,
      "semi_major_axis_km": 6861.116235521529,
      "eccentricity": 0.00011398,
      "inclination_deg": 42.9992,
      "raan_deg": 107.1179,
      "arg_perigee_deg": 274.1078,
      "mean_anomaly_deg": 85.9643,
      "mean_motion_rev_day": 15.27603331
    },
    {
      "epoch": "2026-03-29T01:30:58.873824Z",
      "apogee_km": 483.42279034912826,
      "perigee_km": 482.5898475502081,
      "latitude_deg": -1.5351806624478693e-05,
      "longitude_deg": -105.79497932121063,
      "height_km": 482.70511123090887,
      "semi_major_axis_km": 6861.143318949668,
      "eccentricity": 6.07e-05,
      "inclination_deg": 42.9995,
      "raan_deg": 103.425,
      "arg_perigee_deg": 280.6763,
      "mean_anomaly_deg": 79.402,
      "mean_motion_rev_day": 15.27594286
    },
    {
      "epoch": "2026-03-30T01:03:19.446912Z",
      "apogee_km": 483.3104487229275,
      "perigee_km": 482.66550297519825,
      "latitude_deg": -4.0845383655152426e-05,
      "longitude_deg": -105.38424153658539,
      "height_km": 483.01806118052156,
      "semi_major_axis_km": 6861.124975849063,
      "eccentricity": 4.7e-05,
      "inclination_deg": 42.9993,
      "raan_deg": 97.8882,
      "arg_perigee_deg": 142.2822,
      "mean_anomaly_deg": 217.8062,
      "mean_motion_rev_day": 15.27600412
    },
    {
      "epoch": "2026-03-30T01:03:19.447776Z",
      "apogee_km": 483.3104487229275,
      "perigee_km": 482.66550297519825,
      "latitude_deg": 2.775424839268224e-05,
      "longitude_deg": -105.38417198702976,
      "height_km": 483.01805193870143,
      "semi_major_axis_km": 6861.124975849063,
      "eccentricity": 4.7e-05,
      "inclination_deg": 42.9993,
      "raan_deg": 97.8882,
      "arg_perigee_deg": 142.2822,
      "mean_anomaly_deg": 217.8063,
      "mean_motion_rev_day": 15.27600412
    },
    {
      "epoch": "2026-03-30T10:28:15.528576Z",
      "apogee_km": 483.6272172709223,
      "perigee_km": 482.3452850026797,
      "latitude_deg": 4.2512955679768585e-06,
      "longitude_deg": 110.77894935272029,
      "height_km": 482.7084895411008,
      "semi_major_axis_km": 6861.123251136801,
      "eccentricity": 9.342e-05,
      "inclination_deg": 43.0009,
      "raan_deg": 95.6717,
      "arg_perigee_deg": 274.8476,
      "mean_anomaly_deg": 85.2269,
      "mean_motion_rev_day": 15.27600988
    },
    {
      "epoch": "2026-03-30T16:44:53.546208Z",
      "apogee_km": 483.3427822452977,
      "perigee_km": 482.6676458514348,
      "latitude_deg": -1.9363079968424122e-05,
      "longitude_deg": 14.884721113037454,
      "height_km": 482.7614950459245,
      "semi_major_axis_km": 6861.1422140483655,
      "eccentricity": 4.92e-05,
      "inclination_deg": 42.9982,
      "raan_deg": 94.1937,
      "arg_perigee_deg": 273.2971,
      "mean_anomaly_deg": 86.7824,
      "mean_motion_rev_day": 15.27594655
    },
    {
      "epoch": "2026-03-31T06:52:18.019488Z",
      "apogee_km": 483.94956035158157,
      "perigee_km": 482.092930930311,
      "latitude_deg": 2.064189170948247e-05,
      "longitude_deg": 159.12986243889705,
      "height_km": 482.75937896401285,
      "semi_major_axis_km": 6861.158245640946,
      "eccentricity": 0.0001353,
      "inclination_deg": 43.001,
      "raan_deg": 90.8708,
      "arg_perigee_deg": 272.3857,
      "mean_anomaly_deg": 87.684,
      "mean_motion_rev_day": 15.27589301
    },
    {
      "epoch": "2026-04-01T15:49:35.940000Z",
      "apogee_km": 483.75376101753864,
      "perigee_km": 482.30742688873215,
      "latitude_deg": 6.183626369290615e-06,
      "longitude_deg": 15.69526718419735,
      "height_km": 482.19011662213666,
      "semi_major_axis_km": 6861.167593953135,
      "eccentricity": 0.0001054,
      "inclination_deg": 42.9993,
      "raan_deg": 83.1143,
      "arg_perigee_deg": 31.6957,
      "mean_anomaly_deg": 328.3958,
      "mean_motion_rev_day": 15.27586179
    },
    {
      "epoch": "2026-04-02T15:21:56.212416Z",
      "apogee_km": 483.4005120064776,
      "perigee_km": 482.5773141194277,
      "latitude_deg": 3.6680248260308844e-05,
      "longitude_deg": 16.106321250665136,
      "height_km": 482.8529979931626,
      "semi_major_axis_km": 6861.125913062952,
      "eccentricity": 5.999e-05,
      "inclination_deg": 42.9995,
      "raan_deg": 77.5765,
      "arg_perigee_deg": 257.6296,
      "mean_anomaly_deg": 102.4489,
      "mean_motion_rev_day": 15.27600099
    },
    {
      "epoch": "2026-04-03T14:54:15.408288Z",
      "apogee_km": 485.29567383574886,
      "perigee_km": 480.4723760552115,
      "latitude_deg": 1.874040140718583e-05,
      "longitude_deg": 16.520420882491685,
      "height_km": 482.2460591761774,
      "semi_major_axis_km": 6861.021024945479,
      "eccentricity": 0.0003515,
      "inclination_deg": 42.9963,
      "raan_deg": 72.0373,
      "arg_perigee_deg": 279.9263,
      "mean_anomaly_deg": 80.1192,
      "mean_motion_rev_day": 15.27635129
    },
    {
      "epoch": "2026-04-04T06:35:51.323712Z",
      "apogee_km": 483.8725389312058,
      "perigee_km": 482.35455586009994,
      "latitude_deg": -3.1906304317582746e-05,
      "longitude_deg": 136.78351764515477,
      "height_km": 482.68590354259504,
      "semi_major_axis_km": 6861.250547395653,
      "eccentricity": 0.00011062,
      "inclination_deg": 43.0005,
      "raan_deg": 68.3446,
      "arg_perigee_deg": 285.6034,
      "mean_anomaly_deg": 74.4695,
      "mean_motion_rev_day": 15.27558476
    },
    {
      "epoch": "2026-04-05T04:34:02.631072Z",
      "apogee_km": 483.6254028377016,
      "perigee_km": 482.3389429927802,
      "latitude_deg": 5.419996951992562e-05,
      "longitude_deg": 161.1637265051228,
      "height_km": 482.6683492532084,
      "semi_major_axis_km": 6861.119172915241,
      "eccentricity": 9.375e-05,
      "inclination_deg": 42.9997,
      "raan_deg": 63.1741,
      "arg_perigee_deg": 278.0513,
      "mean_anomaly_deg": 82.0233,
      "mean_motion_rev_day": 15.2760235
    },
    {
      "epoch": "2026-04-05T21:49:45.798240Z",
      "apogee_km": 484.21020035400124,
      "perigee_km": 481.7939816117214,
      "latitude_deg": 1.98399738956914e-05,
      "longitude_deg": -102.53539940203899,
      "height_km": 482.4651743082611,
      "semi_major_axis_km": 6861.1390909828615,
      "eccentricity": 0.00017608,
      "inclination_deg": 43.0006,
      "raan_deg": 59.1138,
      "arg_perigee_deg": 285.0632,
      "mean_anomaly_deg": 75.0025,
      "mean_motion_rev_day": 15.27595698
    },
    {
      "epoch": "2026-04-07T05:12:53.309088Z",
      "apogee_km": 484.14516512469163,
      "perigee_km": 481.81444374622515,
      "latitude_deg": -8.800588475768961e-06,
      "longitude_deg": 138.00881819024843,
      "height_km": 482.79443539382885,
      "semi_major_axis_km": 6861.116804435458,
      "eccentricity": 0.00016985,
      "inclination_deg": 43.0032,
      "raan_deg": 51.7283,
      "arg_perigee_deg": 268.1639,
      "mean_anomaly_deg": 91.9018,
      "mean_motion_rev_day": 15.27603141
    },
    {
      "epoch": "2026-04-08T06:19:23.551392Z",
      "apogee_km": 484.0012835299585,
      "perigee_km": 481.9470668441072,
      "latitude_deg": 3.706934942140861e-05,
      "longitude_deg": 114.44528902293025,
      "height_km": 482.87974898849353,
      "semi_major_axis_km": 6861.111175187033,
      "eccentricity": 0.0001497,
      "inclination_deg": 43.0014,
      "raan_deg": 45.8219,
      "arg_perigee_deg": 262.8034,
      "mean_anomaly_deg": 97.2648,
      "mean_motion_rev_day": 15.27605021
    },
    {
      "epoch": "2026-04-09T04:17:34.631520Z",
      "apogee_km": 483.8502984168499,
      "perigee_km": 482.1063401249967,
      "latitude_deg": 1.913482993528772e-05,
      "longitude_deg": 138.8261345580563,
      "height_km": 482.92215040612587,
      "semi_major_axis_km": 6861.115319270923,
      "eccentricity": 0.00012709,
      "inclination_deg": 43.0011,
      "raan_deg": 40.6512,
      "arg_perigee_deg": 258.9477,
      "mean_anomaly_deg": 101.1232,
      "mean_motion_rev_day": 15.27603637
    },
    {
      "epoch": "2026-04-10T05:24:04.481568Z",
      "apogee_km": 485.46903003057014,
      "perigee_km": 480.5591902961369,
      "latitude_deg": -4.813785945021065e-06,
      "longitude_deg": 115.2627699952843,
      "height_km": 483.93629924671154,
      "semi_major_axis_km": 6861.151110163353,
      "eccentricity": 0.0003578,
      "inclination_deg": 43.001,
      "raan_deg": 34.7434,
      "arg_perigee_deg": 242.2172,
      "mean_anomaly_deg": 117.8317,
      "mean_motion_rev_day": 15.27591684
    },
    {
      "epoch": "2026-04-11T19:03:50.688288Z",
      "apogee_km": 483.6777741442238,
      "perigee_km": 482.3782694890924,
      "latitude_deg": -4.611352845579701e-05,
      "longitude_deg": -100.08736281316273,
      "height_km": 482.6928665782975,
      "semi_major_axis_km": 6861.165021816658,
      "eccentricity": 9.47e-05,
      "inclination_deg": 43.0003,
      "raan_deg": 25.8826,
      "arg_perigee_deg": 279.8819,
      "mean_anomaly_deg": 80.1925,
      "mean_motion_rev_day": 15.27587038
    },
    {
      "epoch": "2026-04-13T04:01:08.237280Z",
      "apogee_km": 483.89348225605136,
      "perigee_km": 482.19287013758003,
      "latitude_deg": 2.5465183599498622e-05,
      "longitude_deg": 116.48088337413454,
      "height_km": 482.8310412137781,
      "semi_major_axis_km": 6861.180176196815,
      "eccentricity": 0.00012393,
      "inclination_deg": 43.002,
      "raan_deg": 18.1273,
      "arg_perigee_deg": 269.2534,
      "mean_anomaly_deg": 90.8176,
      "mean_motion_rev_day": 15.27581977
    },
    {
      "epoch": "2026-04-14T00:25:10.187328Z",
      "apogee_km": 483.7836823299167,
      "perigee_km": 482.2360820391714,
      "latitude_deg": -3.3519572990702644e-05,
      "longitude_deg": 164.83377531609972,
      "height_km": 482.7571231189952,
      "semi_major_axis_km": 6861.146882184544,
      "eccentricity": 0.00011278,
      "inclination_deg": 43.0023,
      "raan_deg": 13.3262,
      "arg_perigee_deg": 272.1843,
      "mean_anomaly_deg": 87.8879,
      "mean_motion_rev_day": 15.27593096
    },
    {
      "epoch": "2026-04-15T03:05:49.291872Z",
      "apogee_km": 484.00699871393954,
      "perigee_km": 482.03167180501805,
      "latitude_deg": -5.8133763947036665e-06,
      "longitude_deg": 117.29756381465057,
      "height_km": 482.86140139531375,
      "semi_major_axis_km": 6861.1563352594785,
      "eccentricity": 0.00014395,
      "inclination_deg": 43.0045,
      "raan_deg": 7.0485,
      "arg_perigee_deg": 266.2357,
      "mean_anomaly_deg": 93.833,
      "mean_motion_rev_day": 15.27589939
    },
    {
      "epoch": "2026-04-16T16:45:34.904160Z",
      "apogee_km": 483.98701439782326,
      "perigee_km": 482.0713767960124,
      "latitude_deg": 2.2454667550814602e-05,
      "longitude_deg": -98.05050507669569,
      "height_km": 482.8147236213886,
      "semi_major_axis_km": 6861.1661955969175,
      "eccentricity": 0.0001396,
      "inclination_deg": 43.0023,
      "raan_deg": 358.1872,
      "arg_perigee_deg": 269.4869,
      "mean_anomaly_deg": 90.5823,
      "mean_motion_rev_day": 15.27586646
    }
  ]
}